*******************************************************************************
Ephemeris / WWW_USER Mon Mar 10 06:43:51 2025 Pasadena, USA      / Horizons    
*******************************************************************************
Target body name: (2018 TG6)                      {source: JPL#30}
Center body name: Earth (399)                     {source: DE441}
Center-site name: Mauna Kea
*******************************************************************************
Start time      : A.D. 2018-Nov-11 03:53:00.0000 UT      
Stop  time      : A.D. 2018-Nov-11 16:18:00.0000 UT      
Step-size       : 1 minutes
*******************************************************************************
Target pole/equ : undefined
Target radii    : undefined                                                    
Center geodetic : 204.5278, 19.8260847, 4.21024   {E-lon(deg),Lat(deg),Alt(km)}
Center cylindric: 204.5278, 6006.35451, 2151.0229 {E-lon(deg),Dxy(km),Dz(km)}
Center pole/equ : ITRF93                          {East-longitude positive}
Center radii    : 6378.137, 6378.137, 6356.752 km {Equator_a, b, pole_c}       
Target primary  : Sun
Vis. interferer : MOON (R_eq= 1737.400) km        {source: DE441}
Rel. light bend : Sun                             {source: DE441}
Rel. lght bnd GM: 1.3271E+11 km^3/s^2                                          
Small-body perts: Yes                             {source: SB441-N16}
Atmos refraction: NO (AIRLESS)
RA format       : HMS
Time format     : CAL 
Calendar mode   : Mixed Julian/Gregorian
RTS-only print  : NO       
EOP file        : eop.250307.p250603                                           
EOP coverage    : DATA-BASED 1962-JAN-20 TO 2025-MAR-07. PREDICTS-> 2025-JUN-02
Units conversion: 1 au= 149597870.700 km, c= 299792.458 km/s, 1 day= 86400.0 s 
Table cut-offs 1: Elevation (-90.0deg=NO ),Airmass (>38.000=NO), Daylight (YES)
Table cut-offs 2: Solar elongation (  0.0,180.0=NO ),Local Hour Angle( 0.0=NO )
Table cut-offs 3: RA/DEC angular rate (     0.0=NO )                           
*******************************************************************************
Initial IAU76/J2000 heliocentric ecliptic osculating elements (au, days, deg.):
  EPOCH=  2458431.5 ! 2018-Nov-09.00 (TDB)         Residual RMS= .2345         
   EC= .08078462401503236  QR= .9719826736009184   TP= 2458484.4320189627      
   OM= 45.37159736002829   W=  55.46172815883946   IN= 1.097814612439332       
  Equivalent ICRF heliocentric cartesian coordinates (au, au/d):
   X= 7.039692724255667E-01  Y= 6.572194580492579E-01  Z= 2.849862807208282E-01
  VX=-1.330010453008250E-02 VY= 1.042346427712734E-02 VZ= 4.885657766154543E-03
Asteroid physical parameters (km, seconds, rotational period in hours):        
   GM= n.a.                RAD= n.a.               ROTPER= n.a.                
   H= 27.25                G= .150                 B-V= n.a.                   
                           ALBEDO= n.a.            STYP= n.a.                  
*******************************************************************************
 Date__(UT)__HR:MN     R.A._________(ICRF)_________DEC
******************************************************
$$SOE
 2018-Nov-11 07:59     23 52 17.438482 +02 09 42.35573
 2018-Nov-11 08:00     23 52 17.078067 +02 09 44.01541
 2018-Nov-11 08:01     23 52 16.717812 +02 09 45.67483
 2018-Nov-11 08:02     23 52 16.357718 +02 09 47.33398
 2018-Nov-11 08:03     23 52 15.997789 +02 09 48.99288
 2018-Nov-11 08:04     23 52 15.638026 +02 09 50.65152
 2018-Nov-11 08:05     23 52 15.278433 +02 09 52.30990
 2018-Nov-11 08:06     23 52 14.919012 +02 09 53.96802
 2018-Nov-11 08:07     23 52 14.559765 +02 09 55.62588
 2018-Nov-11 08:08     23 52 14.200696 +02 09 57.28348
 2018-Nov-11 08:09     23 52 13.841805 +02 09 58.94083
 2018-Nov-11 08:10     23 52 13.483097 +02 10 00.59791
 2018-Nov-11 08:11     23 52 13.124574 +02 10 02.25474
 2018-Nov-11 08:12     23 52 12.766237 +02 10 03.91131
 2018-Nov-11 08:13     23 52 12.408090 +02 10 05.56762
 2018-Nov-11 08:14     23 52 12.050135 +02 10 07.22368
 2018-Nov-11 08:15     23 52 11.692374 +02 10 08.87947
 2018-Nov-11 08:16     23 52 11.334810 +02 10 10.53502
 2018-Nov-11 08:17     23 52 10.977446 +02 10 12.19030
 2018-Nov-11 08:18     23 52 10.620284 +02 10 13.84533
 2018-Nov-11 08:19     23 52 10.263326 +02 10 15.50011
 2018-Nov-11 08:20     23 52 09.906576 +02 10 17.15463
 2018-Nov-11 08:21     23 52 09.550034 +02 10 18.80889
 2018-Nov-11 08:22     23 52 09.193705 +02 10 20.46290
 2018-Nov-11 08:23     23 52 08.837589 +02 10 22.11666
 2018-Nov-11 08:24     23 52 08.481691 +02 10 23.77016
 2018-Nov-11 08:25     23 52 08.126012 +02 10 25.42341
 2018-Nov-11 08:26     23 52 07.770554 +02 10 27.07641
 2018-Nov-11 08:27     23 52 07.415321 +02 10 28.72916
 2018-Nov-11 08:28     23 52 07.060314 +02 10 30.38165
 2018-Nov-11 08:29     23 52 06.705537 +02 10 32.03389
 2018-Nov-11 08:30     23 52 06.350990 +02 10 33.68588
 2018-Nov-11 08:31     23 52 05.996678 +02 10 35.33762
 2018-Nov-11 08:32     23 52 05.642602 +02 10 36.98911
 2018-Nov-11 08:33     23 52 05.288764 +02 10 38.64035
 2018-Nov-11 08:34     23 52 04.935168 +02 10 40.29134
 2018-Nov-11 08:35     23 52 04.581815 +02 10 41.94208
 2018-Nov-11 08:36     23 52 04.228708 +02 10 43.59258
 2018-Nov-11 08:37     23 52 03.875850 +02 10 45.24282
 2018-Nov-11 08:38     23 52 03.523242 +02 10 46.89282
 2018-Nov-11 08:39     23 52 03.170888 +02 10 48.54257
 2018-Nov-11 08:40     23 52 02.818788 +02 10 50.19207
 2018-Nov-11 08:41     23 52 02.466947 +02 10 51.84133
 2018-Nov-11 08:42     23 52 02.115366 +02 10 53.49034
 2018-Nov-11 08:43     23 52 01.764048 +02 10 55.13911
 2018-Nov-11 08:44     23 52 01.412994 +02 10 56.78763
 2018-Nov-11 08:45     23 52 01.062208 +02 10 58.43591
 2018-Nov-11 08:46     23 52 00.711692 +02 11 00.08395
 2018-Nov-11 08:47     23 52 00.361447 +02 11 01.73174
 2018-Nov-11 08:48     23 52 00.011477 +02 11 03.37929
 2018-Nov-11 08:49     23 51 59.661784 +02 11 05.02660
 2018-Nov-11 08:50     23 51 59.312370 +02 11 06.67367
 2018-Nov-11 08:51     23 51 58.963237 +02 11 08.32049
 2018-Nov-11 08:52     23 51 58.614388 +02 11 09.96708
 2018-Nov-11 08:53     23 51 58.265824 +02 11 11.61343
 2018-Nov-11 08:54     23 51 57.917550 +02 11 13.25953
 2018-Nov-11 08:55     23 51 57.569565 +02 11 14.90540
 2018-Nov-11 08:56     23 51 57.221874 +02 11 16.55104
 2018-Nov-11 08:57     23 51 56.874478 +02 11 18.19643
 2018-Nov-11 08:58     23 51 56.527379 +02 11 19.84159
 2018-Nov-11 08:59     23 51 56.180580 +02 11 21.48651
 2018-Nov-11 09:00     23 51 55.834083 +02 11 23.13120
 2018-Nov-11 09:01     23 51 55.487891 +02 11 24.77565
 2018-Nov-11 09:02     23 51 55.142005 +02 11 26.41987
 2018-Nov-11 09:03     23 51 54.796428 +02 11 28.06385
 2018-Nov-11 09:04     23 51 54.451161 +02 11 29.70761
 2018-Nov-11 09:05     23 51 54.106209 +02 11 31.35113
 2018-Nov-11 09:06     23 51 53.761571 +02 11 32.99442
 2018-Nov-11 09:07     23 51 53.417252 +02 11 34.63747
 2018-Nov-11 09:08     23 51 53.073252 +02 11 36.28030
 2018-Nov-11 09:09     23 51 52.729575 +02 11 37.92290
 2018-Nov-11 09:10     23 51 52.386222 +02 11 39.56527
 2018-Nov-11 09:11     23 51 52.043196 +02 11 41.20741
 2018-Nov-11 09:12     23 51 51.700499 +02 11 42.84933
 2018-Nov-11 09:13     23 51 51.358132 +02 11 44.49102
 2018-Nov-11 09:14     23 51 51.016099 +02 11 46.13248
 2018-Nov-11 09:15     23 51 50.674401 +02 11 47.77372
 2018-Nov-11 09:16     23 51 50.333041 +02 11 49.41473
 2018-Nov-11 09:17     23 51 49.992021 +02 11 51.05552
 2018-Nov-11 09:18     23 51 49.651342 +02 11 52.69609
 2018-Nov-11 09:19     23 51 49.311007 +02 11 54.33643
 2018-Nov-11 09:20     23 51 48.971019 +02 11 55.97656
 2018-Nov-11 09:21     23 51 48.631379 +02 11 57.61646
 2018-Nov-11 09:22     23 51 48.292089 +02 11 59.25614
 2018-Nov-11 09:23     23 51 47.953152 +02 12 00.89561
 2018-Nov-11 09:24     23 51 47.614570 +02 12 02.53485
 2018-Nov-11 09:25     23 51 47.276344 +02 12 04.17388
 2018-Nov-11 09:26     23 51 46.938478 +02 12 05.81269
 2018-Nov-11 09:27     23 51 46.600972 +02 12 07.45129
 2018-Nov-11 09:28     23 51 46.263829 +02 12 09.08967
 2018-Nov-11 09:29     23 51 45.927052 +02 12 10.72784
 2018-Nov-11 09:30     23 51 45.590642 +02 12 12.36579
 2018-Nov-11 09:31     23 51 45.254601 +02 12 14.00353
 2018-Nov-11 09:32     23 51 44.918931 +02 12 15.64106
 2018-Nov-11 09:33     23 51 44.583635 +02 12 17.27838
 2018-Nov-11 09:34     23 51 44.248715 +02 12 18.91549
 2018-Nov-11 09:35     23 51 43.914171 +02 12 20.55238
 2018-Nov-11 09:36     23 51 43.580008 +02 12 22.18907
 2018-Nov-11 09:37     23 51 43.246226 +02 12 23.82556
 2018-Nov-11 09:38     23 51 42.912827 +02 12 25.46183
 2018-Nov-11 09:39     23 51 42.579814 +02 12 27.09790
 2018-Nov-11 09:40     23 51 42.247189 +02 12 28.73377
 2018-Nov-11 09:41     23 51 41.914953 +02 12 30.36943
 2018-Nov-11 09:42     23 51 41.583109 +02 12 32.00489
 2018-Nov-11 09:43     23 51 41.251658 +02 12 33.64015
 2018-Nov-11 09:44     23 51 40.920603 +02 12 35.27520
 2018-Nov-11 09:45     23 51 40.589945 +02 12 36.91006
 2018-Nov-11 09:46     23 51 40.259687 +02 12 38.54471
 2018-Nov-11 09:47     23 51 39.929830 +02 12 40.17917
 2018-Nov-11 09:48     23 51 39.600376 +02 12 41.81343
 2018-Nov-11 09:49     23 51 39.271328 +02 12 43.44749
 2018-Nov-11 09:50     23 51 38.942687 +02 12 45.08136
 2018-Nov-11 09:51     23 51 38.614454 +02 12 46.71503
 2018-Nov-11 09:52     23 51 38.286633 +02 12 48.34851
 2018-Nov-11 09:53     23 51 37.959225 +02 12 49.98180
 2018-Nov-11 09:54     23 51 37.632231 +02 12 51.61489
 2018-Nov-11 09:55     23 51 37.305654 +02 12 53.24780
 2018-Nov-11 09:56     23 51 36.979495 +02 12 54.88051
 2018-Nov-11 09:57     23 51 36.653757 +02 12 56.51303
 2018-Nov-11 09:58     23 51 36.328441 +02 12 58.14537
 2018-Nov-11 09:59     23 51 36.003549 +02 12 59.77752
 2018-Nov-11 10:00     23 51 35.679083 +02 13 01.40949
 2018-Nov-11 10:01     23 51 35.355045 +02 13 03.04127
